{"spkid": "20155338", "covariance": {"epoch": "2453561.5", "labels": ["e", "q", "tp", "node", "peri", "i"], "data": [["8.633647074567031E-15", "-1.312010366349928E-14", "-1.475517238064061E-12", "-1.086625921453748E-12", "7.898028099267677E-13", "-1.651072622809576E-13"], ["-1.312010366349928E-14", "2.03263721825454E-14", "1.496815519208554E-12", "1.998497889591653E-12", "-1.921224817249983E-12", "2.319118426311097E-13"], ["-1.475517238064061E-12", "1.496815519208554E-12", "1.873085488475924E-9", "-7.529435580266954E-10", "1.732290503466162E-9", "6.870566709505105E-11"], ["-1.086625921453748E-12", "1.998497889591653E-12", "-7.529435580266954E-10", "4.003089681035966E-7", "-4.004974483015029E-7", "8.347863329761185E-9"], ["7.898028099267677E-13", "-1.921224817249983E-12", "1.732290503466162E-9", "-4.004974483015029E-7", "4.013453520451074E-7", "-8.303123412823387E-9"], ["-1.651072622809576E-13", "2.319118426311097E-13", "6.870566709505105E-11", "8.347863329761185E-9", "-8.303123412823387E-9", "2.061951355638022E-10"]], "elements": [{"label": "e", "sigma": 9.29174207270468e-08, "name": "e", "value": ".4828571170648496", "title": "eccentricity", "units": null}, {"label": "q", "title": "perihelion distance", "value": ".8117972730209425", "units": "au", "name": "q", "sigma": 1.42570586666905e-07}, {"label": "tp", "value": "2453258.142132799423", "title": "time of perihelion passage", "units": "TDB", "name": "tp", "sigma": 4.3279157668281e-05}, {"name": "om", "sigma": 0.000632699745616826, "units": "deg", "value": "226.8315357060852", "title": "longitude of the ascending node", "label": "node"}, {"label": "peri", "name": "w", "sigma": 0.000633518233395936, "value": "138.3568935583535", "title": "argument of perihelion", "units": "deg"}, {"label": "i", "units": "deg", "title": "inclination", "value": "2.076876097946714", "name": "i", "sigma": 1.435949635481e-05}]}, "elements": [{"name": "e", "sigma": "9.2587E-8", "title": "eccentricity", "value": ".4824665716721262", "units": null, "label": "e"}, {"label": "a", "value": "1.569369255009638", "title": "semi-major axis", "units": "au", "name": "a", "sigma": "2.9783E-8"}, {"label": "q", "title": "perihelion distance", "value": ".8122010508574994", "units": "au", "sigma": "1.428E-7", "name": "q"}, {"label": "i", "units": "deg", "title": "inclination; angle with respect to x-y ecliptic plane", "value": "2.081571422839404", "name": "i", "sigma": "1.4364E-5"}, {"units": "deg", "title": "longitude of the ascending node", "value": "226.5794656344075", "name": "om", "sigma": ".00063135", "label": "node"}, {"label": "peri", "sigma": ".00063208", "name": "w", "title": "argument of perihelion", "value": "138.686884800891", "units": "deg"}, {"sigma": ".00011853", "name": "ma", "units": "deg", "title": "mean anomaly", "value": "21.9736964684185", "label": "M"}, {"label": "tp", "sigma": ".00023519", "name": "tp", "units": "TDB", "value": "2461156.668457179417", "title": "time of perihelion passage"}, {"name": "per", "sigma": "2.0442E-5", "units": "d", "title": "sidereal orbital period", "value": "718.10200154938", "label": "period"}, {"title": "mean motion", "value": ".5013215381982816", "units": "deg/d", "name": "n", "sigma": "1.4271E-8", "label": "n"}, {"label": "Q", "name": "ad", "sigma": "4.4152E-8", "units": "au", "title": "aphelion distance", "value": "2.326537459161777"}], "epoch": "2461200.5"}